#aV2010  2  4  0  0   .00000000      96 DD+AD WGS84 FIT  NGA
## 1569 345600.00000000   900.00000000 55231  .0000000000000
+   32     1  2  3  4  5  6  7  8  9 10 11 12 13 14 15 16 17
+         18 19 20 21 22 23 24 25 26 27 28 29 30 31 32  0  0
+          0  0  0  0  0  0  0  0  0  0  0  0  0  0  0  0  0
+          0  0  0  0  0  0  0  0  0  0  0  0  0  0  0  0  0
+          0  0  0  0  0  0  0  0  0  0  0  0  0  0  0  0  0
++         0  0  0  0  0  0  0  0  0  0  0  0  0  0  0  0  0
++         0  0  0  0  0  0  0  0  0  0  0  0  0  0  0  0  0
++         0  0  0  0  0  0  0  0  0  0  0  0  0  0  0  0  0
++         0  0  0  0  0  0  0  0  0  0  0  0  0  0  0  0  0
++         0  0  0  0  0  0  0  0  0  0  0  0  0  0  0  0  0
%c cc cc ccc ccc cccc cccc cccc cccc ccccc ccccc ccccc ccccc
%c cc cc ccc ccc cccc cccc cccc cccc ccccc ccccc ccccc ccccc
%f  0.0000000  0.000000000  0.00000000000  0.000000000000000
%f  0.0000000  0.000000000  0.00000000000  0.000000000000000
%i    0    0    0    0      0      0      0      0         0
%i    0    0    0    0      0      0      0      0         0
/*      NGA, ST. LOUIS,MO.                                  
/*   EPHEMERIS COMPUTED FROM  3 DAYS OF DATA                
/* CCCCCCCCCCCCCCCCCCCCCCCCCCCCCCCCCCCCCCCCCCCCCCCCCCCCCCCCC
/* CCCCCCCCCCCCCCCCCCCCCCCCCCCCCCCCCCCCCCCCCCCCCCCCCCCCCCCCC
*  2010  2  4 17 45   .00000000                                                 
P  1 -18830.836442 -18760.530928   1712.800258    -85.780861                    
V  1    370.418396  -3454.870815 -31624.620453      -.035839                    
P  2  18659.711412 -13735.227736  12522.451639    223.106484                    
V  2  16500.344113   -604.380208 -25574.956675       .041355                    
P  3 -10074.722303  23144.850710   7320.912175    511.341229                    
V  3  -2035.596995 -10476.824827  29277.238893       .051581                    
P  4  26131.665239  -5756.980807    223.145932      7.039855                    
V  4   1135.315479   3017.887550 -31029.399467       .091951                    
P  5   6532.767201 -14739.681386  21072.023564    -10.650442                    
V  5  18641.135136  19303.150869   7800.271491       .029028                    
P  6 -13509.130740  20290.654841  10584.194552    253.700923                    
V  6    318.194859 -13651.013189  27150.926782      -.044910                    
P  7  18153.802807   8392.603524  17549.208342      3.322717                    
V  7 -21417.303454   6058.740581  19097.761139      -.005727                    
P  8  25725.723368   1187.128315   7521.170895      2.914029                    
V  8  -9122.012890   2671.844819  30194.929111       .004164                    
P  9   1800.341713 -15691.314049 -22010.460467    104.092368                    
V  9  25659.004849  -5975.982651   6600.193749       .022778                    
P 10  12332.244181  -9055.790829  21538.350982    -34.586915                    
V 10  18210.433883  20994.364376  -1242.201235      -.010262                    
P 11   4344.198204  16464.782021 -20607.196734    -43.503280                    
V 11 -23809.045001  10425.568820   3722.575682      -.021300                    
P 12  -9131.073810 -22144.883626 -11569.216499   -154.277808                    
V 12  11343.156248   9597.022515 -27051.947397       .048202                    
P 13   8270.764503  14912.947794  20228.058212    306.589992                    
V 13 -10200.031033  23816.854902 -13314.634125      -.000903                    
P 14 -15919.988185   3415.884813 -20819.403319      8.016687                    
V 14   8576.446308 -25306.004535 -10755.531871       .043597                    
P 15   6840.121589 -25573.493416  -1216.992583   -309.002020                    
V 15   3421.464345   -614.465372  31645.446047       .027355                    
P 16 -12440.752412   8530.281040  21920.202834    -37.918632                    
V 16 -18040.610021 -20982.262718  -1824.332701      -.040452                    
P 17  16524.807274  -4899.015395 -20061.993887    127.052638                    
V 17  -7232.666452  24723.068468 -12147.760398       .031982                    
P 18 -19761.697517 -17249.177120  -5031.015108     46.667607                    
V 18  -1973.652825  -7094.388382  30152.850149       .026248                    
P 19  -7796.437821  25023.900769  -3145.826167    -13.658486                    
V 19  -4435.757396   2592.210227  31546.008572      -.023171                    
P 20  12479.005379  21942.890334  -8492.355960     61.953906                    
V 20  -9640.984751  -5457.041978 -28666.903023      -.007601                    
P 21 -22095.847916  -6255.082718  14164.593784    -38.455734                    
V 21  16515.184090  -5655.679059  23148.970103      -.024777                    
P 22 -20582.347617  -6845.264719 -15219.897204    179.890619                    
V 22 -10852.936095 -16570.109376  21822.658779      -.008347                    
P 23   2039.375027  22797.314611  13184.750692    380.736012                    
V 23  -7416.040333  15340.049285 -25618.372394      -.009342                    
P 24 -12184.394964 -12536.716650  20029.656229    259.623772                    
V 24  24778.789562  -5393.585680  11999.208593       .031479                    
P 25  11745.497976  11449.978133  21192.880986     92.920262                    
V 25 -24690.835448   8581.402218   9393.829633       .071175                    
P 26 -13272.038592  -6588.534499 -22571.849216    -15.473961                    
V 26  10182.153265 -25300.432116   1881.748023      -.034228                    
P 27   5156.457237 -15550.987489 -20189.204424    123.259252                    
V 27  26491.082328  -6254.894853  11307.545030       .033347                    
P 28  20520.066646  10017.112045 -13351.624940    -22.637203                    
V 28   9900.150534  14679.684422  25052.900826       .005930                    
P 29  -7196.351947 -17990.089892  18274.875151     95.439629                    
V 29   9073.214218 -21194.203454 -17342.131086       .030260                    
P 30 -16985.351018 -20277.663713  -3108.669518    216.638703                    
V 30   4508.788151    424.962921 -31261.014473       .032944                    
P 31 -25395.332427   7576.683507   3022.143916    -52.756376                    
V 31  -3925.655898  -1378.380719 -31668.372129       .014544                    
P 32   3569.967371  21705.083701 -14754.224892    102.251163                    
V 32 -13229.466376 -14107.225947 -23073.635919      -.082280                    
EOF
